QIANFAN-228             
1 69857U 26155K   26204.23908735  .00000161  00000+0  68447-4 0  9995
2 69857  89.0061  60.0347 0030241 195.7583 164.2669 14.20222917  2522
QIANFAN-229             
1 69858U 26155L   26204.22996777  .00000093  00000+0  35548-4 0  9998
2 69858  89.0059  60.0330 0030054 195.1203 164.9093 14.21820660  2525
QIANFAN-230             
1 69859U 26155M   26204.26787254  .00000164  00000+0  73156-4 0  9997
2 69859  89.0055  60.0380 0029469 195.9963 164.0298 14.17864670  2528
QIANFAN-231             
1 69860U 26155N   26204.22880068  .00000180  00000+0  72027-4 0  9996
2 69860  89.0062  60.0333 0031336 194.7108 165.3176 14.23685346  2527
QIANFAN-232             
1 69861U 26155P   26204.22603996  .00000203  00000+0  81800-4 0  9995
2 69861  89.0060  60.0324 0030525 196.0911 163.9315 14.23943061  2522
QIANFAN-233             
1 69862U 26155Q   26204.22415432  .00000172  00000+0  68588-4 0  9995
2 69862  89.0062  60.0325 0030489 195.6853 164.3397 14.23733907  2526
QIANFAN-234             
1 69863U 26155R   26204.22135566  .00000078  00000+0  27112-4 0  9996
2 69863  89.0062  60.0321 0030466 194.4501 165.5824 14.24414426  2526
QIANFAN-235             
1 69864U 26155S   26204.21798128  .00000228  00000+0  87562-4 0  9997
2 69864  89.0061  60.0315 0031125 196.2723 163.7475 14.26767009  2520
QIANFAN-236             
1 69865U 26155T   26204.22762873  .00000054  00000+0  18064-4 0  9995
2 69865  89.0062  60.0330 0029616 195.5468 164.4816 14.21103804  2528
QIANFAN-237             
1 69866U 26155U   26204.22147043  .00000078  00000+0  27077-4 0  9992
2 69866  89.0061  60.0320 0030769 195.7216 164.3025 14.24432576  2515
QIANFAN-238             
1 69867U 26155V   26204.21781485  .00000223  00000+0  85780-4 0  9993
2 69867  89.0061  60.0315 0031157 196.0055 164.0158 14.26739882  2524
CAS500-4                
1 69869U 26156A   26204.27330410 -.00000135  00000+0 -61898-4 0  9998
2 69869  98.9940 104.2137 0011948 177.1884 182.9350 13.99858499  2236
TRANSPORTER-17 OBJECT B 
1 69870U 26156B   26204.17316166  .00002022  00000+0  20659-3 0  9995
2 69870  97.7511 104.3608 0008435  94.1169 266.1014 14.91662344  2365
PELICAN-11              
1 69871U 26156C   26204.17285749  .00000345  00000+0  39876-4 0  9996
2 69871  97.7549 104.3712 0007584  97.4286 262.7794 14.91674519  2176
TRANSPORTER-17 OBJECT D 
1 69872U 26156D   26204.18304187  .00000836  00000+0  90741-4 0  9999
2 69872  97.7515 104.3497 0005041  67.6036 292.5716 14.90716485  2362
TRANSPORTER-17 OBJECT E 
1 69873U 26156E   26204.17385022  .00000727  00000+0  77995-4 0  9991
2 69873  97.7551 104.3700 0007422  94.6862 265.5204 14.91582671  2363
TRANSPORTER-17 OBJECT F 
1 69874U 26156F   26204.18153855  .00001504  00000+0  15820-3 0  9992
2 69874  97.7520 104.3528 0004723  80.6591 279.5161 14.90867520  2368
TRANSPORTER-17 OBJECT G 
1 69875U 26156G   26204.18101613  .00001150  00000+0  12213-3 0  9998
2 69875  97.7506 104.3511 0005152  77.7248 282.4547 14.90913013  2368
TRANSPORTER-17 OBJECT H 
1 69876U 26156H   26203.96920509  .00002570  00000+0  25954-3 0  9990
2 69876  97.7169 104.1554 0008512 101.4288 258.7887 14.91889813  2332
TRANSPORTER-17 OBJECT J 
1 69877U 26156J   26204.17649536  .00002905  00000+0  29671-3 0  9995
2 69877  97.7542 104.3648 0006626  89.9190 270.2788 14.91355381  2360
TRANSPORTER-17 OBJECT K 
1 69878U 26156K   26204.17240090  .00000670  00000+0  72060-4 0  9996
2 69878  97.7510 104.3618 0008390  95.2665 264.9512 14.91718493  2362
TRANSPORTER-17 OBJECT L 
1 69879U 26156L   26204.17479011  .00001108  00000+0  11621-3 0  9996
2 69879  97.7547 104.3675 0007209  92.7871 267.4173 14.91498664  2361
TRANSPORTER-17 OBJECT M 
1 69880U 26156M   26203.91134625  .00001529  00000+0  16012-3 0  9994
2 69880  97.7451 104.0791 0006364  73.6344 286.5574 14.91032140  2323
TRANSPORTER-17 OBJECT N 
1 69881U 26156N   26203.91135089  .00000569  00000+0  63129-4 0  9995
2 69881  97.7487 104.0859 0005779  79.0436 281.1432 14.91023002  2320
TRANSPORTER-17 OBJECT P 
1 69882U 26156P   26204.17957592  .00003340  00000+0  34274-3 0  9994
2 69882  97.7560 104.3634 0005088  93.4721 266.7080 14.91067430  2362
TRANSPORTER-17 OBJECT Q 
1 69883U 26156Q   26204.17675397  .00000567  00000+0  62454-4 0  9995
2 69883  97.7541 104.3633 0006556  89.6376 270.5594 14.91306058  2360
YAM-17                  
1 69884U 26156R   26204.17122998  .00001176  00000+0  12193-3 0  9991
2 69884  97.7510 104.3640 0008600  98.1031 262.1164 14.91835429  2369
TRANSPORTER-17 OBJECT S 
1 69885U 26156S   26204.17530022  .00000673  00000+0  72875-4 0  9998
2 69885  97.7518 104.3603 0007438  89.0430 271.1641 14.91444451  2368
TRANSPORTER-17 OBJECT T 
1 69886U 26156T   26204.17117624  .00000758  00000+0  80540-4 0  9990
2 69886  97.7548 104.3722 0008325 100.5575 259.6582 14.91835127  2357
TRANSPORTER-17 OBJECT U 
1 69887U 26156U   26204.17147177  .00000166  00000+0  22019-4 0  9997
2 69887  97.7546 104.3714 0008172 100.4326 259.7815 14.91800260  2361
