OBJECT_NAME,OBJECT_ID,EPOCH,MEAN_MOTION,ECCENTRICITY,INCLINATION,RA_OF_ASC_NODE,ARG_OF_PERICENTER,MEAN_ANOMALY,EPHEMERIS_TYPE,CLASSIFICATION_TYPE,NORAD_CAT_ID,ELEMENT_SET_NO,REV_AT_EPOCH,BSTAR,MEAN_MOTION_DOT,MEAN_MOTION_DDOT
QIANFAN-228,2026-155K,2026-07-23T05:44:17.147040,14.20222917,.00302411,89.0061,60.0347,195.7583,164.2669,0,U,69857,999,252,.68447409E-4,.161E-5,0
QIANFAN-229,2026-155L,2026-07-23T05:31:09.215328,14.21820660,.0030054,89.0059,60.0330,195.1203,164.9093,0,U,69858,999,252,.35547595E-4,.93E-6,0
QIANFAN-230,2026-155M,2026-07-23T06:25:44.187456,14.17864670,.00294698,89.0055,60.0380,195.9963,164.0298,0,U,69859,999,252,.73156454E-4,.164E-5,0
QIANFAN-231,2026-155N,2026-07-23T05:29:28.378752,14.23685346,.0031336,89.0062,60.0333,194.7108,165.3176,0,U,69860,999,252,.72026525E-4,.18E-5,0
QIANFAN-232,2026-155P,2026-07-23T05:25:29.852544,14.23943061,.00305259,89.0060,60.0324,196.0911,163.9315,0,U,69861,999,252,.81799593E-4,.203E-5,0
QIANFAN-233,2026-155Q,2026-07-23T05:22:46.933248,14.23733907,.00304893,89.0062,60.0325,195.6853,164.3397,0,U,69862,999,252,.68587629E-4,.172E-5,0
QIANFAN-234,2026-155R,2026-07-23T05:18:45.129024,14.24414426,.00304662,89.0062,60.0321,194.4501,165.5824,0,U,69863,999,252,.27112188E-4,.78E-6,0
QIANFAN-235,2026-155S,2026-07-23T05:13:53.582592,14.26767009,.00311254,89.0061,60.0315,196.2723,163.7475,0,U,69864,999,252,.87561922E-4,.228E-5,0
QIANFAN-236,2026-155T,2026-07-23T05:27:47.122272,14.21103804,.00296161,89.0062,60.0330,195.5468,164.4816,0,U,69865,999,252,.18063887E-4,.54E-6,0
QIANFAN-237,2026-155U,2026-07-23T05:18:55.045152,14.24432576,.00307691,89.0061,60.0320,195.7216,164.3025,0,U,69866,999,251,.27077133E-4,.78E-6,0
QIANFAN-238,2026-155V,2026-07-23T05:13:39.203040,14.26739882,.0031157,89.0061,60.0315,196.0055,164.0158,0,U,69867,999,252,.85779503E-4,.223E-5,0
CAS500-4,2026-156A,2026-07-23T06:33:33.474240,13.99858499,.00119484,98.9940,104.2137,177.1884,182.9350,0,U,69869,999,223,-.61898319E-4,-.135E-5,0
TRANSPORTER-17 OBJECT B,2026-156B,2026-07-23T04:09:21.167424,14.91662344,.0008435,97.7511,104.3608,94.1169,266.1014,0,U,69870,999,236,.20658583E-3,.2022E-4,0
PELICAN-11,2026-156C,2026-07-23T04:08:54.887136,14.91674519,.00075846,97.7549,104.3712,97.4286,262.7794,0,U,69871,999,217,.3987565E-4,.345E-5,0
TRANSPORTER-17 OBJECT D,2026-156D,2026-07-23T04:23:34.817568,14.90716485,.00050414,97.7515,104.3497,67.6036,292.5716,0,U,69872,999,236,.90740911E-4,.836E-5,0
TRANSPORTER-17 OBJECT E,2026-156E,2026-07-23T04:10:20.659008,14.91582671,.00074222,97.7551,104.3700,94.6862,265.5204,0,U,69873,999,236,.77994916E-4,.727E-5,0
TRANSPORTER-17 OBJECT F,2026-156F,2026-07-23T04:21:24.930720,14.90867520,.00047239,97.7520,104.3528,80.6591,279.5161,0,U,69874,999,236,.15820465E-3,.1504E-4,0
TRANSPORTER-17 OBJECT G,2026-156G,2026-07-23T04:20:39.793632,14.90913013,.00051521,97.7506,104.3511,77.7248,282.4547,0,U,69875,999,236,.12213218E-3,.115E-4,0
TRANSPORTER-17 OBJECT H,2026-156H,2026-07-22T23:15:39.319776,14.91889813,.00085128,97.7169,104.1554,101.4288,258.7887,0,U,69876,999,233,.25954224E-3,.257E-4,0
TRANSPORTER-17 OBJECT J,2026-156J,2026-07-23T04:14:09.199104,14.91355381,.00066267,97.7542,104.3648,89.9190,270.2788,0,U,69877,999,236,.29671329E-3,.2905E-4,0
TRANSPORTER-17 OBJECT K,2026-156K,2026-07-23T04:08:15.437760,14.91718493,.000839,97.7510,104.3618,95.2665,264.9512,0,U,69878,999,236,.72060035E-4,.67E-5,0
TRANSPORTER-17 OBJECT L,2026-156L,2026-07-23T04:11:41.865504,14.91498664,.00072094,97.7547,104.3675,92.7871,267.4173,0,U,69879,999,236,.11621323E-3,.1108E-4,0
TRANSPORTER-17 OBJECT M,2026-156M,2026-07-22T21:52:20.316000,14.91032140,.00063648,97.7451,104.0791,73.6344,286.5574,0,U,69880,999,232,.16011728E-3,.1529E-4,0
TRANSPORTER-17 OBJECT N,2026-156N,2026-07-22T21:52:20.716896,14.91023002,.00057791,97.7487,104.0859,79.0436,281.1432,0,U,69881,999,232,.63129181E-4,.569E-5,0
TRANSPORTER-17 OBJECT P,2026-156P,2026-07-23T04:18:35.359488,14.91067430,.00050883,97.7560,104.3634,93.4721,266.7080,0,U,69882,999,236,.34274486E-3,.334E-4,0
TRANSPORTER-17 OBJECT Q,2026-156Q,2026-07-23T04:14:31.543008,14.91306058,.00065562,97.7541,104.3633,89.6376,270.5594,0,U,69883,999,236,.62453987E-4,.567E-5,0
YAM-17,2026-156R,2026-07-23T04:06:34.270272,14.91835429,.00086,97.7510,104.3640,98.1031,262.1164,0,U,69884,999,236,.12192911E-3,.1176E-4,0
TRANSPORTER-17 OBJECT S,2026-156S,2026-07-23T04:12:25.939008,14.91444451,.00074386,97.7518,104.3603,89.0430,271.1641,0,U,69885,999,236,.72875475E-4,.673E-5,0
TRANSPORTER-17 OBJECT T,2026-156T,2026-07-23T04:06:29.627136,14.91835127,.00083259,97.7548,104.3722,100.5575,259.6582,0,U,69886,999,235,.80539795E-4,.758E-5,0
TRANSPORTER-17 OBJECT U,2026-156U,2026-07-23T04:06:55.160928,14.91800260,.00081725,97.7546,104.3714,100.4326,259.7815,0,U,69887,999,236,.22019063E-4,.166E-5,0
